*******************************************************************************
 Revised: April 12, 2021       Solar System Barycenter                        0

 Dynamical point 
 ---------------
 The center of mass for the solar system. See object 10 for Sun ephemeris.
*******************************************************************************


*******************************************************************************
Ephemeris / WWW_USER Wed Feb  2 11:04:02 2022 Pasadena, USA      / Horizons    
*******************************************************************************
Target body name: Solar System Barycenter (0)     {source: DE441}
Center body name: Sun (10)                        {source: DE441}
Center-site name: BODYCENTRIC
*******************************************************************************
Start time      : A.D. 2026-Jan-01 00:09:00.0000 UT      
Stop  time      : A.D. 2026-Dec-31 23:59:00.0000 UT      
Step-size       : 40 minutes
*******************************************************************************
Target pole/equ : MARSIAU                         {East-longitude positive}
Target radii    : 696000.0 x 696000.0 x 696000.0 k{Equator, meridian, pole}    
Center geodetic : 0.00000000,0.00000000,0.0000000 {E-lon(deg),Lat(deg),Alt(km)}
Center cylindric: 0.00000000,0.00000000,0.0000000 {E-lon(deg),Dxy(km),Dz(km)}
Center pole/equ : IAU_SUN                         {East-longitude positive}
Center radii    : 696000.0 x 696000.0 x 696000.0 k{Equator, meridian, pole}    
Target primary  : Sun
Vis. interferer : None
Rel. light bend : Sun                             {source: DE441}
Rel. lght bnd GM: 1.3271E+11 km^3/s^2                                          
Atmos refraction: NO (AIRLESS)
RA format       : HMS
Time format     : CAL 
EOP file        : eop.220131.p220426                                           
EOP coverage    : DATA-BASED 1962-JAN-20 TO 2022-JAN-31. PREDICTS-> 2022-APR-25
Units conversion: 1 au= 149597870.700 km, c= 299792.458 km/s, 1 day= 86400.0 s 
Table cut-offs 1: Elevation (-90.0deg=NO ),Airmass     n.a.    , Daylight (NO )
Table cut-offs 2: Solar elongation (  0.0,180.0=NO ),Local Hour Angle( 0.0=NO )
Table cut-offs 3: RA/DEC angular rate (     0.0=NO )                           
*******************************************************************************
 Date__(UT)__HR:MN     R.A._____(ICRF)_____DEC             delta      deldot
****************************************************************************
$$SOE
 2026-Oct-13 14:49     05 04 23.39 +21 48 07.8  0.00524105342151  -0.0067241
 2026-Oct-13 15:29     05 04 23.80 +21 48 08.4  0.00524094554661  -0.0067241
 2026-Oct-13 16:09     05 04 24.22 +21 48 09.0  0.00524083767032  -0.0067242
 2026-Oct-13 16:49     05 04 24.63 +21 48 09.6  0.00524072979265  -0.0067243
 2026-Oct-13 17:29     05 04 25.04 +21 48 10.2  0.00524062191358  -0.0067244
 2026-Oct-13 18:09     05 04 25.45 +21 48 10.9  0.00524051403312  -0.0067245
 2026-Oct-13 18:49     05 04 25.87 +21 48 11.5  0.00524040615126  -0.0067246
 2026-Oct-13 19:29     05 04 26.28 +21 48 12.1  0.00524029826802  -0.0067247
 2026-Oct-13 20:09     05 04 26.69 +21 48 12.7  0.00524019038337  -0.0067248
 2026-Oct-13 20:49     05 04 27.10 +21 48 13.3  0.00524008249733  -0.0067248
 2026-Oct-13 21:29     05 04 27.52 +21 48 14.0  0.00523997460990  -0.0067249
 2026-Oct-13 22:09     05 04 27.93 +21 48 14.6  0.00523986672106  -0.0067250
 2026-Oct-13 22:49     05 04 28.34 +21 48 15.2  0.00523975883083  -0.0067251
 2026-Oct-13 23:29     05 04 28.75 +21 48 15.8  0.00523965093919  -0.0067252
 2026-Oct-14 00:09     05 04 29.17 +21 48 16.4  0.00523954304616  -0.0067253
 2026-Oct-14 00:49     05 04 29.58 +21 48 17.0  0.00523943515172  -0.0067254
 2026-Oct-14 01:29     05 04 29.99 +21 48 17.7  0.00523932725588  -0.0067255
 2026-Oct-14 02:09     05 04 30.40 +21 48 18.3  0.00523921935864  -0.0067255
 2026-Oct-14 02:49     05 04 30.82 +21 48 18.9  0.00523911145999  -0.0067256
 2026-Oct-14 03:29     05 04 31.23 +21 48 19.5  0.00523900355993  -0.0067257
 2026-Oct-14 04:09     05 04 31.64 +21 48 20.1  0.00523889565847  -0.0067258
 2026-Oct-14 04:49     05 04 32.05 +21 48 20.7  0.00523878775559  -0.0067259
 2026-Oct-14 05:29     05 04 32.47 +21 48 21.4  0.00523867985131  -0.0067260
 2026-Oct-14 06:09     05 04 32.88 +21 48 22.0  0.00523857194562  -0.0067261
 2026-Oct-14 06:49     05 04 33.29 +21 48 22.6  0.00523846403851  -0.0067262
 2026-Oct-14 07:29     05 04 33.70 +21 48 23.2  0.00523835613000  -0.0067262
 2026-Oct-14 08:09     05 04 34.12 +21 48 23.8  0.00523824822007  -0.0067263
 2026-Oct-14 08:49     05 04 34.53 +21 48 24.4  0.00523814030872  -0.0067264
 2026-Oct-14 09:29     05 04 34.94 +21 48 25.1  0.00523803239596  -0.0067265
 2026-Oct-14 10:09     05 04 35.36 +21 48 25.7  0.00523792448179  -0.0067266
 2026-Oct-14 10:49     05 04 35.77 +21 48 26.3  0.00523781656619  -0.0067267
 2026-Oct-14 11:29     05 04 36.18 +21 48 26.9  0.00523770864918  -0.0067268
 2026-Oct-14 12:09     05 04 36.59 +21 48 27.5  0.00523760073075  -0.0067269
 2026-Oct-14 12:49     05 04 37.01 +21 48 28.1  0.00523749281090  -0.0067270
 2026-Oct-14 13:29     05 04 37.42 +21 48 28.8  0.00523738488962  -0.0067270
 2026-Oct-14 14:09     05 04 37.83 +21 48 29.4  0.00523727696693  -0.0067271
 2026-Oct-14 14:49     05 04 38.24 +21 48 30.0  0.00523716904281  -0.0067272
 2026-Oct-14 15:29     05 04 38.66 +21 48 30.6  0.00523706111726  -0.0067273
 2026-Oct-14 16:09     05 04 39.07 +21 48 31.2  0.00523695319029  -0.0067274
 2026-Oct-14 16:49     05 04 39.48 +21 48 31.8  0.00523684526189  -0.0067275
 2026-Oct-14 17:29     05 04 39.90 +21 48 32.4  0.00523673733206  -0.0067276
 2026-Oct-14 18:09     05 04 40.31 +21 48 33.1  0.00523662940081  -0.0067277
 2026-Oct-14 18:49     05 04 40.72 +21 48 33.7  0.00523652146812  -0.0067278
 2026-Oct-14 19:29     05 04 41.13 +21 48 34.3  0.00523641353401  -0.0067278
 2026-Oct-14 20:09     05 04 41.55 +21 48 34.9  0.00523630559846  -0.0067279
 2026-Oct-14 20:49     05 04 41.96 +21 48 35.5  0.00523619766148  -0.0067280
 2026-Oct-14 21:29     05 04 42.37 +21 48 36.1  0.00523608972307  -0.0067281
 2026-Oct-14 22:09     05 04 42.78 +21 48 36.8  0.00523598178322  -0.0067282
 2026-Oct-14 22:49     05 04 43.20 +21 48 37.4  0.00523587384193  -0.0067283
 2026-Oct-14 23:29     05 04 43.61 +21 48 38.0  0.00523576589921  -0.0067284
 2026-Oct-15 00:09     05 04 44.02 +21 48 38.6  0.00523565795505  -0.0067285
 2026-Oct-15 00:49     05 04 44.44 +21 48 39.2  0.00523555000945  -0.0067286
 2026-Oct-15 01:29     05 04 44.85 +21 48 39.8  0.00523544206241  -0.0067286
 2026-Oct-15 02:09     05 04 45.26 +21 48 40.4  0.00523533411393  -0.0067287
 2026-Oct-15 02:49     05 04 45.67 +21 48 41.1  0.00523522616400  -0.0067288
 2026-Oct-15 03:29     05 04 46.09 +21 48 41.7  0.00523511821264  -0.0067289
 2026-Oct-15 04:09     05 04 46.50 +21 48 42.3  0.00523501025983  -0.0067290
 2026-Oct-15 04:49     05 04 46.91 +21 48 42.9  0.00523490230557  -0.0067291
 2026-Oct-15 05:29     05 04 47.33 +21 48 43.5  0.00523479434987  -0.0067292
 2026-Oct-15 06:09     05 04 47.74 +21 48 44.1  0.00523468639272  -0.0067293
 2026-Oct-15 06:49     05 04 48.15 +21 48 44.8  0.00523457843412  -0.0067294
 2026-Oct-15 07:29     05 04 48.56 +21 48 45.4  0.00523447047407  -0.0067295
 2026-Oct-15 08:09     05 04 48.98 +21 48 46.0  0.00523436251257  -0.0067295
 2026-Oct-15 08:49     05 04 49.39 +21 48 46.6  0.00523425454962  -0.0067296
 2026-Oct-15 09:29     05 04 49.80 +21 48 47.2  0.00523414658522  -0.0067297
 2026-Oct-15 10:09     05 04 50.22 +21 48 47.8  0.00523403861937  -0.0067298
 2026-Oct-15 10:49     05 04 50.63 +21 48 48.4  0.00523393065206  -0.0067299
 2026-Oct-15 11:29     05 04 51.04 +21 48 49.1  0.00523382268329  -0.0067300
 2026-Oct-15 12:09     05 04 51.45 +21 48 49.7  0.00523371471307  -0.0067301
 2026-Oct-15 12:49     05 04 51.87 +21 48 50.3  0.00523360674139  -0.0067302
 2026-Oct-15 13:29     05 04 52.28 +21 48 50.9  0.00523349876825  -0.0067303
 2026-Oct-15 14:09     05 04 52.69 +21 48 51.5  0.00523339079365  -0.0067304
 2026-Oct-15 14:49     05 04 53.11 +21 48 52.1  0.00523328281759  -0.0067305
 2026-Oct-15 15:29     05 04 53.52 +21 48 52.7  0.00523317484007  -0.0067305
 2026-Oct-15 16:09     05 04 53.93 +21 48 53.3  0.00523306686108  -0.0067306
 2026-Oct-15 16:49     05 04 54.35 +21 48 54.0  0.00523295888063  -0.0067307
 2026-Oct-15 17:29     05 04 54.76 +21 48 54.6  0.00523285089872  -0.0067308
 2026-Oct-15 18:09     05 04 55.17 +21 48 55.2  0.00523274291534  -0.0067309
 2026-Oct-15 18:49     05 04 55.58 +21 48 55.8  0.00523263493050  -0.0067310
 2026-Oct-15 19:29     05 04 56.00 +21 48 56.4  0.00523252694418  -0.0067311
 2026-Oct-15 20:09     05 04 56.41 +21 48 57.0  0.00523241895640  -0.0067312
 2026-Oct-15 20:49     05 04 56.82 +21 48 57.6  0.00523231096714  -0.0067313
 2026-Oct-15 21:29     05 04 57.24 +21 48 58.3  0.00523220297642  -0.0067314
 2026-Oct-15 22:09     05 04 57.65 +21 48 58.9  0.00523209498422  -0.0067315
 2026-Oct-15 22:49     05 04 58.06 +21 48 59.5  0.00523198699055  -0.0067316
 2026-Oct-15 23:29     05 04 58.48 +21 49 00.1  0.00523187899541  -0.0067316
 2026-Oct-16 00:09     05 04 58.89 +21 49 00.7  0.00523177099879  -0.0067317
 2026-Oct-16 00:49     05 04 59.30 +21 49 01.3  0.00523166300069  -0.0067318
 2026-Oct-16 01:29     05 04 59.71 +21 49 01.9  0.00523155500112  -0.0067319
 2026-Oct-16 02:09     05 05 00.13 +21 49 02.5  0.00523144700006  -0.0067320
 2026-Oct-16 02:49     05 05 00.54 +21 49 03.2  0.00523133899753  -0.0067321
 2026-Oct-16 03:29     05 05 00.95 +21 49 03.8  0.00523123099352  -0.0067322
 2026-Oct-16 04:09     05 05 01.37 +21 49 04.4  0.00523112298803  -0.0067323
 2026-Oct-16 04:49     05 05 01.78 +21 49 05.0  0.00523101498105  -0.0067324
 2026-Oct-16 05:29     05 05 02.19 +21 49 05.6  0.00523090697259  -0.0067325
 2026-Oct-16 06:09     05 05 02.61 +21 49 06.2  0.00523079896264  -0.0067326
 2026-Oct-16 06:49     05 05 03.02 +21 49 06.8  0.00523069095121  -0.0067327
